{"type": "FeatureCollection", "features": [ {"type": "Feature", "properties": {"norad_id": 43622, "name": "BEIDOU-3 M13 (C32)", "group": "beidou", "lat": 56.40527220425972, "lon": 153.99929503257687, "alt_km": 21536.07567793886, "timestamp": "2025-12-20T20:38:44.708221+00:00", "meta": {"OBJECT_NAME": "BEIDOU-3 M13 (C32)", "OBJECT_ID": "2018-072A", "EPOCH": "2025-12-19T15:44:25.442592", "MEAN_MOTION": 1.86231092, "ECCENTRICITY": 0.0006094, "INCLINATION": 56.4653, "RA_OF_ASC_NODE": 68.5911, "ARG_OF_PERICENTER": 298.8206, "MEAN_ANOMALY": 61.1557, "EPHEMERIS_TYPE": 0, "CLASSIFICATION_TYPE": "U", "NORAD_CAT_ID": 43622, "ELEMENT_SET_NO": 999, "REV_AT_EPOCH": 4931, "BSTAR": 0, "MEAN_MOTION_DOT": -5.1e-07, "MEAN_MOTION_DDOT": 0}, "tle": {"line1": "1 43622U 18072A   25353.65585003 -.00000051  00000+0  00000+0 0  9990", "line2": "2 43622  56.4653  68.5911 0006094 298.8206  61.1557  1.86231092 49316"}}, "geometry": {"type": "Point", "coordinates": [153.99929503257687, 56.40527220425972]}}, {"type": "Feature", "properties": {"norad_id": 43623, "name": "BEIDOU-3 M14 (C33)", "group": "beidou", "lat": 1.9313350865198156, "lon": -112.71606481722397, "alt_km": 21536.560101038187, "timestamp": "2025-12-20T20:38:44.708232+00:00", "meta": {"OBJECT_NAME": "BEIDOU-3 M14 (C33)", "OBJECT_ID": "2018-072B", "EPOCH": "2025-12-20T01:23:54.905568", "MEAN_MOTION": 1.86231107, "ECCENTRICITY": 0.00034495, "INCLINATION": 56.4671, "RA_OF_ASC_NODE": 68.5717, "ARG_OF_PERICENTER": 329.1657, "MEAN_ANOMALY": 30.8537, "EPHEMERIS_TYPE": 0, "CLASSIFICATION_TYPE": "U", "NORAD_CAT_ID": 43623, "ELEMENT_SET_NO": 999, "REV_AT_EPOCH": 4931, "BSTAR": 0, "MEAN_MOTION_DOT": -4.7e-07, "MEAN_MOTION_DDOT": 0}, "tle": {"line1": "1 43623U 18072B   25354.05827437 -.00000047  00000+0  00000+0 0  9991", "line2": "2 43623  56.4671  68.5717 0003449 329.1657  30.8537  1.86231107 49318"}}, "geometry": {"type": "Point", "coordinates": [-112.71606481722397, 1.9313350865198156]}}, {"type": "Feature", "properties": {"norad_id": 43647, "name": "BEIDOU-3 M16 (C35)", "group": "beidou", "lat": 50.55449779019382, "lon": 7.200718534619124, "alt_km": 21509.423609271027, "timestamp": "2025-12-20T20:38:44.708244+00:00", "meta": {"OBJECT_NAME": "BEIDOU-3 M16 (C35)", "OBJECT_ID": "2018-078A", "EPOCH": "2025-12-18T14:31:23.928384", "MEAN_MOTION": 1.86232416, "ECCENTRICITY": 0.00073312, "INCLINATION": 54.2565, "RA_OF_ASC_NODE": 306.3163, "ARG_OF_PERICENTER": 19.8035, "MEAN_ANOMALY": 340.2135, "EPHEMERIS_TYPE": 0, "CLASSIFICATION_TYPE": "U", "NORAD_CAT_ID": 43647, "ELEMENT_SET_NO": 999, "REV_AT_EPOCH": 4879, "BSTAR": 0, "MEAN_MOTION_DOT": -8.1e-07, "MEAN_MOTION_DDOT": 0}, "tle": {"line1": "1 43647U 18078A   25352.60513806 -.00000081  00000+0  00000+0 0  9992", "line2": "2 43647  54.2565 306.3163 0007331  19.8035 340.2135  1.86232416 48794"}}, "geometry": {"type": "Point", "coordinates": [7.200718534619124, 50.55449779019382]}}, {"type": "Feature", "properties": {"norad_id": 43648, "name": "BEIDOU-3 M15 (C34)", "group": "beidou", "lat": -11.893612540824327, "lon": -62.50308724057111, "alt_km": 21520.597301766058, "timestamp": "2025-12-20T20:38:44.708255+00:00", "meta": {"OBJECT_NAME": "BEIDOU-3 M15 (C34)", "OBJECT_ID": "2018-078B", "EPOCH": "2025-12-19T06:30:41.361984", "MEAN_MOTION": 1.86232317, "ECCENTRICITY": 0.0003969, "INCLINATION": 54.2518, "RA_OF_ASC_NODE": 306.2933, "ARG_OF_PERICENTER": 20.1104, "MEAN_ANOMALY": 339.8954, "EPHEMERIS_TYPE": 0, "CLASSIFICATION_TYPE": "U", "NORAD_CAT_ID": 43648, "ELEMENT_SET_NO": 999, "REV_AT_EPOCH": 4882, "BSTAR": 0, "MEAN_MOTION_DOT": -7.6e-07, "MEAN_MOTION_DDOT": 0}, "tle": {"line1": "1 43648U 18078B   25353.27131206 -.00000076  00000+0  00000+0 0  9991", "line2": "2 43648  54.2518 306.2933 0003969  20.1104 339.8954  1.86232317 48829"}}, "geometry": {"type": "Point", "coordinates": [-62.50308724057111, -11.893612540824327]}}, {"type": "Feature", "properties": {"norad_id": 43683, "name": "BEIDOU-3 G1 (C59)", "group": "beidou", "lat": 2.5578985093113675, "lon": 179.38109380416168, "alt_km": 35780.93138672657, "timestamp": "2025-12-20T20:38:44.708266+00:00", "meta": {"OBJECT_NAME": "BEIDOU-3 G1 (C59)", "OBJECT_ID": "2018-085A", "EPOCH": "2025-12-20T13:53:49.776576", "MEAN_MOTION": 1.0026848, "ECCENTRICITY": 0.00015879, "INCLINATION": 2.6264, "RA_OF_ASC_NODE": 102.7378, "ARG_OF_PERICENTER": 46.8871, "MEAN_ANOMALY": 288.262, "EPHEMERIS_TYPE": 0, "CLASSIFICATION_TYPE": "U", "NORAD_CAT_ID": 43683, "ELEMENT_SET_NO": 999, "REV_AT_EPOCH": 2626, "BSTAR": 0, "MEAN_MOTION_DOT": -2.56e-06, "MEAN_MOTION_DDOT": 0}, "tle": {"line1": "1 43683U 18085A   25354.57904834 -.00000256  00000+0  00000+0 0  9997", "line2": "2 43683   2.6264 102.7378 0001587  46.8871 288.2620  1.00268480 26262"}}, "geometry": {"type": "Point", "coordinates": [179.38109380416168, 2.5578985093113675]}}, {"type": "Feature", "properties": {"norad_id": 43706, "name": "BEIDOU-3 M17 (C36)", "group": "beidou", "lat": -43.9165215338791, "lon": 52.456967225840614, "alt_km": 21527.27551765697, "timestamp": "2025-12-20T20:38:44.708278+00:00", "meta": {"OBJECT_NAME": "BEIDOU-3 M17 (C36)", "OBJECT_ID": "2018-093A", "EPOCH": "2025-12-20T12:04:20.840736", "MEAN_MOTION": 1.86228485, "ECCENTRICITY": 0.00060883, "INCLINATION": 54.1751, "RA_OF_ASC_NODE": 188.3582, "ARG_OF_PERICENTER": 307.8758, "MEAN_ANOMALY": 51.559, "EPHEMERIS_TYPE": 0, "CLASSIFICATION_TYPE": "U", "NORAD_CAT_ID": 43706, "ELEMENT_SET_NO": 999, "REV_AT_EPOCH": 4820, "BSTAR": 0, "MEAN_MOTION_DOT": 9.7e-07, "MEAN_MOTION_DDOT": 0}, "tle": {"line1": "1 43706U 18093A   25354.50301899  .00000097  00000+0  00000+0 0  9999", "line2": "2 43706  54.1751 188.3582 0006088 307.8758  51.5590  1.86228485 48203"}}, "geometry": {"type": "Point", "coordinates": [52.456967225840614, -43.9165215338791]}}, {"type": "Feature", "properties": {"norad_id": 43707, "name": "BEIDOU-3 M18 (C37)", "group": "beidou", "lat": -22.60051702614716, "lon": 170.83170321095204, "alt_km": 21515.202985988708, "timestamp": "2025-12-20T20:38:44.708289+00:00", "meta": {"OBJECT_NAME": "BEIDOU-3 M18 (C37)", "OBJECT_ID": "2018-093B", "EPOCH": "2025-12-19T19:53:02.312736", "MEAN_MOTION": 1.86226834, "ECCENTRICITY": 0.00062874, "INCLINATION": 54.1737, "RA_OF_ASC_NODE": 188.373, "ARG_OF_PERICENTER": 353.4895, "MEAN_ANOMALY": 6.5612, "EPHEMERIS_TYPE": 0, "CLASSIFICATION_TYPE": "U", "NORAD_CAT_ID": 43707, "ELEMENT_SET_NO": 999, "REV_AT_EPOCH": 4819, "BSTAR": 0, "MEAN_MOTION_DOT": 1e-06, "MEAN_MOTION_DDOT": 0}, "tle": {"line1": "1 43707U 18093B   25353.82849899  .00000100  00000+0  00000+0 0  9996", "line2": "2 43707  54.1737 188.3730 0006287 353.4895   6.5612  1.86226834 48192"}}, "geometry": {"type": "Point", "coordinates": [170.83170321095204, -22.60051702614716]}}, {"type": "Feature", "properties": {"norad_id": 44231, "name": "BEIDOU-2 G8 (C01)", "group": "beidou", "lat": 1.5882153228515556, "lon": -176.21616082704108, "alt_km": 35814.262142933105, "timestamp": "2025-12-20T20:38:44.708300+00:00", "meta": {"OBJECT_NAME": "BEIDOU-2 G8 (C01)", "OBJECT_ID": "2019-027A", "EPOCH": "2025-12-19T12:14:23.449632", "MEAN_MOTION": 1.00276563, "ECCENTRICITY": 0.0008196, "INCLINATION": 1.6785, "RA_OF_ASC_NODE": 74.7229, "ARG_OF_PERICENTER": 258.5641, "MEAN_ANOMALY": 83.1013, "EPHEMERIS_TYPE": 0, "CLASSIFICATION_TYPE": "U", "NORAD_CAT_ID": 44231, "ELEMENT_SET_NO": 999, "REV_AT_EPOCH": 2427, "BSTAR": 0, "MEAN_MOTION_DOT": -2.24e-06, "MEAN_MOTION_DDOT": 0}, "tle": {"line1": "1 44231U 19027A   25353.50999363 -.00000224  00000+0  00000+0 0  9992", "line2": "2 44231   1.6785  74.7229 0008196 258.5641  83.1013  1.00276563 24270"}}, "geometry": {"type": "Point", "coordinates": [-176.21616082704108, 1.5882153228515556]}}, {"type": "Feature", "properties": {"norad_id": 44337, "name": "BEIDOU-3 IGSO-2 (C39)", "group": "beidou", "lat": -1.1774056123553385, "lon": 159.5933523054001, "alt_km": 35932.67861058017, "timestamp": "2025-12-20T20:38:44.708312+00:00", "meta": {"OBJECT_NAME": "BEIDOU-3 IGSO-2 (C39)", "OBJECT_ID": "2019-035A", "EPOCH": "2025-12-20T08:39:57.339648", "MEAN_MOTION": 1.00269066, "ECCENTRICITY": 0.00375855, "INCLINATION": 55.2282, "RA_OF_ASC_NODE": 160.4344, "ARG_OF_PERICENTER": 202.2219, "MEAN_ANOMALY": 335.9377, "EPHEMERIS_TYPE": 0, "CLASSIFICATION_TYPE": "U", "NORAD_CAT_ID": 44337, "ELEMENT_SET_NO": 999, "REV_AT_EPOCH": 2387, "BSTAR": 0, "MEAN_MOTION_DOT": -6.5e-07, "MEAN_MOTION_DDOT": 0}, "tle": {"line1": "1 44337U 19035A   25354.36108032 -.00000065  00000+0  00000+0 0  9991", "line2": "2 44337  55.2282 160.4344 0037585 202.2219 335.9377  1.00269066 23872"}}, "geometry": {"type": "Point", "coordinates": [159.5933523054001, -1.1774056123553385]}}, {"type": "Feature", "properties": {"norad_id": 44542, "name": "BEIDOU-3 M24 (C46)", "group": "beidou", "lat": -52.01709419311674, "lon": 122.10025212144085, "alt_km": 21539.25719405346, "timestamp": "2025-12-20T20:38:44.708323+00:00", "meta": {"OBJECT_NAME": "BEIDOU-3 M24 (C46)", "OBJECT_ID": "2019-061A", "EPOCH": "2025-12-19T21:35:13.024320", "MEAN_MOTION": 1.86229464, "ECCENTRICITY": 0.00096018, "INCLINATION": 54.4003, "RA_OF_ASC_NODE": 188.7744, "ARG_OF_PERICENTER": 25.6941, "MEAN_ANOMALY": 334.4131, "EPHEMERIS_TYPE": 0, "CLASSIFICATION_TYPE": "U", "NORAD_CAT_ID": 44542, "ELEMENT_SET_NO": 999, "REV_AT_EPOCH": 4245, "BSTAR": 0, "MEAN_MOTION_DOT": 1e-06, "MEAN_MOTION_DDOT": 0}, "tle": {"line1": "1 44542U 19061A   25353.89945630  .00000100  00000+0  00000+0 0  9997", "line2": "2 44542  54.4003 188.7744 0009601  25.6941 334.4131  1.86229464 42455"}}, "geometry": {"type": "Point", "coordinates": [122.10025212144085, -52.01709419311674]}}]}